[{"OBJECT_NAME":"STARLINK-34341","OBJECT_ID":"2025-112R","EPOCH":"2025-09-22T02:36:02.673792","MEAN_MOTION":15.05676229,"ECCENTRICITY":7.854e-5,"INCLINATION":97.6016,"RA_OF_ASC_NODE":315.3837,"ARG_OF_PERICENTER":102.165,"MEAN_ANOMALY":257.9665,"EPHEMERIS_TYPE":0,"CLASSIFICATION_TYPE":"U","NORAD_CAT_ID":64161,"ELEMENT_SET_NO":999,"REV_AT_EPOCH":1794,"BSTAR":0.00077419304,"MEAN_MOTION_DOT":0.00011135,"MEAN_MOTION_DDOT":0},{"OBJECT_NAME":"STARLINK-34317","OBJECT_ID":"2025-112S","EPOCH":"2025-09-22T03:47:49.002720","MEAN_MOTION":15.05660344,"ECCENTRICITY":7.379e-5,"INCLINATION":97.6028,"RA_OF_ASC_NODE":315.4686,"ARG_OF_PERICENTER":99.7776,"MEAN_ANOMALY":260.3534,"EPHEMERIS_TYPE":0,"CLASSIFICATION_TYPE":"U","NORAD_CAT_ID":64162,"ELEMENT_SET_NO":999,"REV_AT_EPOCH":1795,"BSTAR":0.0001579956,"MEAN_MOTION_DOT":2.22e-5,"MEAN_MOTION_DDOT":0},{"OBJECT_NAME":"STARLINK-34340","OBJECT_ID":"2025-112T","EPOCH":"2025-09-22T03:15:55.665216","MEAN_MOTION":15.05644864,"ECCENTRICITY":0.00011381,"INCLINATION":97.604,"RA_OF_ASC_NODE":315.3453,"ARG_OF_PERICENTER":98.8653,"MEAN_ANOMALY":261.2703,"EPHEMERIS_TYPE":0,"CLASSIFICATION_TYPE":"U","NORAD_CAT_ID":64163,"ELEMENT_SET_NO":999,"REV_AT_EPOCH":1794,"BSTAR":0.00034205789,"MEAN_MOTION_DOT":4.877e-5,"MEAN_MOTION_DDOT":0},{"OBJECT_NAME":"STARLINK-34263","OBJECT_ID":"2025-112U","EPOCH":"2025-09-22T03:03:58.454496","MEAN_MOTION":15.05661513,"ECCENTRICITY":9.304e-5,"INCLINATION":97.6029,"RA_OF_ASC_NODE":315.3576,"ARG_OF_PERICENTER":137.0394,"MEAN_ANOMALY":223.0906,"EPHEMERIS_TYPE":0,"CLASSIFICATION_TYPE":"U","NORAD_CAT_ID":64164,"ELEMENT_SET_NO":999,"REV_AT_EPOCH":1794,"BSTAR":0.00097256689,"MEAN_MOTION_DOT":0.00014004,"MEAN_MOTION_DDOT":0},{"OBJECT_NAME":"STARLINK-33793","OBJECT_ID":"2025-112V","EPOCH":"2025-09-22T02:51:59.209056","MEAN_MOTION":15.05657124,"ECCENTRICITY":7.648e-5,"INCLINATION":97.6014,"RA_OF_ASC_NODE":315.3687,"ARG_OF_PERICENTER":106.6557,"MEAN_ANOMALY":253.4754,"EPHEMERIS_TYPE":0,"CLASSIFICATION_TYPE":"U","NORAD_CAT_ID":64165,"ELEMENT_SET_NO":999,"REV_AT_EPOCH":1794,"BSTAR":0.00031822978,"MEAN_MOTION_DOT":4.535e-5,"MEAN_MOTION_DDOT":0},{"OBJECT_NAME":"STARLINK-34313","OBJECT_ID":"2025-112W","EPOCH":"2025-09-22T02:40:01.784064","MEAN_MOTION":15.05657265,"ECCENTRICITY":0.0001051,"INCLINATION":97.6015,"RA_OF_ASC_NODE":315.3796,"ARG_OF_PERICENTER":89.2483,"MEAN_ANOMALY":270.8864,"EPHEMERIS_TYPE":0,"CLASSIFICATION_TYPE":"U","NORAD_CAT_ID":64166,"ELEMENT_SET_NO":999,"REV_AT_EPOCH":1794,"BSTAR":0.00038875383,"MEAN_MOTION_DOT":5.554e-5,"MEAN_MOTION_DDOT":0},{"OBJECT_NAME":"STARLINK-34309","OBJECT_ID":"2025-112X","EPOCH":"2025-09-22T02:28:03.990144","MEAN_MOTION":15.05664664,"ECCENTRICITY":0.00015758,"INCLINATION":97.6023,"RA_OF_ASC_NODE":315.3918,"ARG_OF_PERICENTER":155.2371,"MEAN_ANOMALY":204.8932,"EPHEMERIS_TYPE":0,"CLASSIFICATION_TYPE":"U","NORAD_CAT_ID":64167,"ELEMENT_SET_NO":999,"REV_AT_EPOCH":1794,"BSTAR":0.00050036692,"MEAN_MOTION_DOT":7.169e-5,"MEAN_MOTION_DDOT":0},{"OBJECT_NAME":"STARLINK-34303","OBJECT_ID":"2025-112Y","EPOCH":"2025-09-22T03:51:47.970432","MEAN_MOTION":15.05667368,"ECCENTRICITY":0.00010637,"INCLINATION":97.6012,"RA_OF_ASC_NODE":315.4669,"ARG_OF_PERICENTER":160.3873,"MEAN_ANOMALY":199.7395,"EPHEMERIS_TYPE":0,"CLASSIFICATION_TYPE":"U","NORAD_CAT_ID":64168,"ELEMENT_SET_NO":999,"REV_AT_EPOCH":1795,"BSTAR":0.00048044673,"MEAN_MOTION_DOT":6.882e-5,"MEAN_MOTION_DDOT":0},{"OBJECT_NAME":"STARLINK-34175","OBJECT_ID":"2025-112Z","EPOCH":"2025-09-22T03:27:52.171776","MEAN_MOTION":15.05655028,"ECCENTRICITY":0.00012698,"INCLINATION":97.6041,"RA_OF_ASC_NODE":315.3346,"ARG_OF_PERICENTER":93.4027,"MEAN_ANOMALY":266.7345,"EPHEMERIS_TYPE":0,"CLASSIFICATION_TYPE":"U","NORAD_CAT_ID":64169,"ELEMENT_SET_NO":999,"REV_AT_EPOCH":1794,"BSTAR":0.00025043583,"MEAN_MOTION_DOT":3.555e-5,"MEAN_MOTION_DDOT":0},{"OBJECT_NAME":"STARLINK-34177","OBJECT_ID":"2025-113A","EPOCH":"2025-09-21T23:04:49.650528","MEAN_MOTION":15.30218872,"ECCENTRICITY":0.00016615,"INCLINATION":53.16,"RA_OF_ASC_NODE":154.7535,"ARG_OF_PERICENTER":86.7864,"MEAN_ANOMALY":273.3327,"EPHEMERIS_TYPE":0,"CLASSIFICATION_TYPE":"U","NORAD_CAT_ID":64170,"ELEMENT_SET_NO":999,"REV_AT_EPOCH":1923,"BSTAR":0.0011902698,"MEAN_MOTION_DOT":0.00035081,"MEAN_MOTION_DDOT":0},{"OBJECT_NAME":"STARLINK-34228","OBJECT_ID":"2025-113B","EPOCH":"2025-09-22T01:45:34.629408","MEAN_MOTION":15.30203919,"ECCENTRICITY":0.00010103,"INCLINATION":53.1583,"RA_OF_ASC_NODE":154.0252,"ARG_OF_PERICENTER":85.2603,"MEAN_ANOMALY":274.8513,"EPHEMERIS_TYPE":0,"CLASSIFICATION_TYPE":"U","NORAD_CAT_ID":64171,"ELEMENT_SET_NO":999,"REV_AT_EPOCH":1925,"BSTAR":0.0012098909,"MEAN_MOTION_DOT":0.00035651,"MEAN_MOTION_DDOT":0},{"OBJECT_NAME":"STARLINK-34233","OBJECT_ID":"2025-113C","EPOCH":"2025-09-22T02:32:41.111232","MEAN_MOTION":15.30209921,"ECCENTRICITY":9.268e-5,"INCLINATION":53.1585,"RA_OF_ASC_NODE":154.2311,"ARG_OF_PERICENTER":100.4265,"MEAN_ANOMALY":259.684,"EPHEMERIS_TYPE":0,"CLASSIFICATION_TYPE":"U","NORAD_CAT_ID":64172,"ELEMENT_SET_NO":999,"REV_AT_EPOCH":1925,"BSTAR":0.0016750187,"MEAN_MOTION_DOT":0.00049597,"MEAN_MOTION_DDOT":0},{"OBJECT_NAME":"STARLINK-34172","OBJECT_ID":"2025-113D","EPOCH":"2025-09-22T01:47:05.685504","MEAN_MOTION":15.3021504,"ECCENTRICITY":8.255e-5,"INCLINATION":53.1588,"RA_OF_ASC_NODE":154.0304,"ARG_OF_PERICENTER":83.6057,"MEAN_ANOMALY":276.5038,"EPHEMERIS_TYPE":0,"CLASSIFICATION_TYPE":"U","NORAD_CAT_ID":64173,"ELEMENT_SET_NO":999,"REV_AT_EPOCH":1921,"BSTAR":0.0010508049,"MEAN_MOTION_DOT":0.00030907,"MEAN_MOTION_DDOT":0},{"OBJECT_NAME":"STARLINK-34202","OBJECT_ID":"2025-113E","EPOCH":"2025-09-21T23:13:55.184448","MEAN_MOTION":15.30178204,"ECCENTRICITY":0.00011388,"INCLINATION":53.1576,"RA_OF_ASC_NODE":154.7922,"ARG_OF_PERICENTER":67.8652,"MEAN_ANOMALY":292.2469,"EPHEMERIS_TYPE":0,"CLASSIFICATION_TYPE":"U","NORAD_CAT_ID":64174,"ELEMENT_SET_NO":999,"REV_AT_EPOCH":1923,"BSTAR":0.00015213558,"MEAN_MOTION_DOT":4.146e-5,"MEAN_MOTION_DDOT":0},{"OBJECT_NAME":"STARLINK-34231","OBJECT_ID":"2025-113F","EPOCH":"2025-09-22T02:44:50.596800","MEAN_MOTION":15.3020695,"ECCENTRICITY":0.00011647,"INCLINATION":53.1586,"RA_OF_ASC_NODE":154.2817,"ARG_OF_PERICENTER":83.7916,"MEAN_ANOMALY":276.3218,"EPHEMERIS_TYPE":0,"CLASSIFICATION_TYPE":"U","NORAD_CAT_ID":64175,"ELEMENT_SET_NO":999,"REV_AT_EPOCH":1925,"BSTAR":0.00073795712,"MEAN_MOTION_DOT":0.00021565,"MEAN_MOTION_DDOT":0},{"OBJECT_NAME":"STARLINK-34191","OBJECT_ID":"2025-113G","EPOCH":"2025-09-21T23:53:17.350944","MEAN_MOTION":15.30202456,"ECCENTRICITY":9.082e-5,"INCLINATION":53.1565,"RA_OF_ASC_NODE":154.2479,"ARG_OF_PERICENTER":99.7505,"MEAN_ANOMALY":260.3598,"EPHEMERIS_TYPE":0,"CLASSIFICATION_TYPE":"U","NORAD_CAT_ID":64176,"ELEMENT_SET_NO":999,"REV_AT_EPOCH":1924,"BSTAR":0.00082184204,"MEAN_MOTION_DOT":0.00024062,"MEAN_MOTION_DDOT":0},{"OBJECT_NAME":"STARLINK-34164","OBJECT_ID":"2025-113H","EPOCH":"2025-09-21T23:47:22.407648","MEAN_MOTION":15.30206973,"ECCENTRICITY":0.00010785,"INCLINATION":53.1575,"RA_OF_ASC_NODE":154.9367,"ARG_OF_PERICENTER":82.548,"MEAN_ANOMALY":277.5643,"EPHEMERIS_TYPE":0,"CLASSIFICATION_TYPE":"U","NORAD_CAT_ID":64177,"ELEMENT_SET_NO":999,"REV_AT_EPOCH":1923,"BSTAR":0.0007887451,"MEAN_MOTION_DOT":0.00023079,"MEAN_MOTION_DDOT":0},{"OBJECT_NAME":"STARLINK-34227","OBJECT_ID":"2025-113J","EPOCH":"2025-09-21T23:18:30.028032","MEAN_MOTION":15.30205875,"ECCENTRICITY":8.071e-5,"INCLINATION":53.1588,"RA_OF_ASC_NODE":154.8089,"ARG_OF_PERICENTER":71.6195,"MEAN_ANOMALY":288.4893,"EPHEMERIS_TYPE":0,"CLASSIFICATION_TYPE":"U","NORAD_CAT_ID":64178,"ELEMENT_SET_NO":999,"REV_AT_EPOCH":1923,"BSTAR":0.0012741653,"MEAN_MOTION_DOT":0.00037576,"MEAN_MOTION_DDOT":0},{"OBJECT_NAME":"STARLINK-34194","OBJECT_ID":"2025-113K","EPOCH":"2025-09-21T22:26:49.933824","MEAN_MOTION":15.30207496,"ECCENTRICITY":3.464e-5,"INCLINATION":53.1551,"RA_OF_ASC_NODE":154.5852,"ARG_OF_PERICENTER":126.349,"MEAN_ANOMALY":233.7543,"EPHEMERIS_TYPE":0,"CLASSIFICATION_TYPE":"U","NORAD_CAT_ID":64179,"ELEMENT_SET_NO":999,"REV_AT_EPOCH":1923,"BSTAR":0.0010009315,"MEAN_MOTION_DOT":0.0002941,"MEAN_MOTION_DDOT":0},{"OBJECT_NAME":"STARLINK-34000","OBJECT_ID":"2025-113L","EPOCH":"2025-09-22T02:05:19.854240","MEAN_MOTION":15.30222172,"ECCENTRICITY":0.00010726,"INCLINATION":53.1594,"RA_OF_ASC_NODE":154.1066,"ARG_OF_PERICENTER":78.9321,"MEAN_ANOMALY":281.1801,"EPHEMERIS_TYPE":0,"CLASSIFICATION_TYPE":"U","NORAD_CAT_ID":64180,"ELEMENT_SET_NO":999,"REV_AT_EPOCH":1921,"BSTAR":0.00094911047,"MEAN_MOTION_DOT":0.00027875,"MEAN_MOTION_DDOT":0},{"OBJECT_NAME":"STARLINK-33917","OBJECT_ID":"2025-113M","EPOCH":"2025-09-21T23:35:12.880608","MEAN_MOTION":15.30208058,"ECCENTRICITY":0.00012255,"INCLINATION":53.1582,"RA_OF_ASC_NODE":154.8783,"ARG_OF_PERICENTER":77.355,"MEAN_ANOMALY":282.7588,"EPHEMERIS_TYPE":0,"CLASSIFICATION_TYPE":"U","NORAD_CAT_ID":64181,"ELEMENT_SET_NO":999,"REV_AT_EPOCH":1923,"BSTAR":0.0010073172,"MEAN_MOTION_DOT":0.00029601,"MEAN_MOTION_DDOT":0},{"OBJECT_NAME":"STARLINK-34131","OBJECT_ID":"2025-113N","EPOCH":"2025-09-22T02:23:33.966816","MEAN_MOTION":15.30211314,"ECCENTRICITY":9.101e-5,"INCLINATION":53.159,"RA_OF_ASC_NODE":154.1851,"ARG_OF_PERICENTER":69.2827,"MEAN_ANOMALY":290.8272,"EPHEMERIS_TYPE":0,"CLASSIFICATION_TYPE":"U","NORAD_CAT_ID":64182,"ELEMENT_SET_NO":999,"REV_AT_EPOCH":1921,"BSTAR":0.0011985075,"MEAN_MOTION_DOT":0.00035318,"MEAN_MOTION_DDOT":0},{"OBJECT_NAME":"STARLINK-34188","OBJECT_ID":"2025-113P","EPOCH":"2025-09-22T02:46:21.714240","MEAN_MOTION":15.30214284,"ECCENTRICITY":0.00010788,"INCLINATION":53.1574,"RA_OF_ASC_NODE":154.2871,"ARG_OF_PERICENTER":84.0593,"MEAN_ANOMALY":276.0531,"EPHEMERIS_TYPE":0,"CLASSIFICATION_TYPE":"U","NORAD_CAT_ID":64183,"ELEMENT_SET_NO":999,"REV_AT_EPOCH":1925,"BSTAR":0.0012520052,"MEAN_MOTION_DOT":0.00036922,"MEAN_MOTION_DDOT":0}]
